NORAD_CAT_ID,OBJECT_NAME,OBJECT_TYPE,EPOCH,MEAN_MOTION,ECCENTRICITY,INCLINATION,RA_OF_ASC_NODE,ARG_OF_PERICENTER,MEAN_ANOMALY,BSTAR,MEAN_MOTION_DOT,MEAN_MOTION_DDOT,TLE_LINE0,TLE_LINE1,TLE_LINE2,SEMIMAJOR_AXIS,PERIOD,APOGEE,PERIGEE,DECAYED
51852.0,STARLINK-3542,PAYLOAD,2023-08-11 09:10:52,15.08844492,0.0001096,53.2155,284.815,83.9546,276.1571,0.00017747,2.538e-05,0.0,0 STARLINK-3542,1 51852U 22022A   23223.38254911  .00002538  00000-0  17747-3 0  9991,2 51852  53.2155 284.8150 0001096  83.9546 276.1571 15.08844492 80904,6917.867,95.437,540.49,538.973,0.0
51852.0,STARLINK-3542,PAYLOAD,2023-08-12 09:01:39,15.08841509,0.0001262,53.2165,280.3551,84.6472,275.4664,8.2247e-05,1.021e-05,0.0,0 STARLINK-3542,1 51852U 22022A   23224.37615015  .00001021  00000-0  82247-4 0  9991,2 51852  53.2165 280.3551 0001262  84.6472 275.4664 15.08841509 81050,6917.876,95.437,540.614,538.868,0.0
51852.0,STARLINK-3542,PAYLOAD,2023-08-13 15:13:58,15.08842186,0.0001203,53.2164,274.7035,86.6269,273.4861,4.783e-05,4.73e-06,0.0,0 STARLINK-3542,1 51852U 22022A   23225.63470836  .00000473  00000-0  47830-4 0  9990,2 51852  53.2164 274.7035 0001203  86.6269 273.4861 15.08842186 81244,6917.874,95.437,540.571,538.906,0.0
51852.0,STARLINK-3542,PAYLOAD,2023-08-15 10:09:23,15.08836188,0.0001123,53.2162,266.6763,82.8274,277.2846,0.00013893,1.924e-05,0.0,0 STARLINK-3542,1 51852U 22022A   23227.42319433  .00001924  00000-0  13893-3 0  9997,2 51852  53.2162 266.6763 0001123  82.8274 277.2846 15.08836188 81515,6917.892,95.438,540.534,538.98,0.0
51852.0,STARLINK-3542,PAYLOAD,2023-08-16 10:00:09,15.08866994,0.0001268,53.2165,262.216,89.867,270.2468,0.00030213,4.527e-05,0.0,0 STARLINK-3542,1 51852U 22022A   23228.41677347  .00004527  00000-0  30213-3 0  9995,2 51852  53.2165 262.2160 0001268  89.8670 270.2468 15.08866994 81665,6917.798,95.436,540.54,538.786,0.0
51852.0,STARLINK-3542,PAYLOAD,2023-08-16 14:46:19,15.08859264,0.0001486,53.2163,261.3231,80.684,279.432,0.00023257,3.417e-05,0.0,0 STARLINK-3542,1 51852U 22022A   23228.61549930  .00003417  00000-0  23257-3 0  9990,2 51852  53.2163 261.3231 0001486  80.6840 279.4320 15.08859264 81695,6917.822,95.436,540.714,538.659,0.0
51852.0,STARLINK-3542,PAYLOAD,2023-08-16 19:32:29,15.08849539,0.0001534,53.2163,260.4321,75.1322,284.984,0.00014457,2.014e-05,0.0,0 STARLINK-3542,1 51852U 22022A   23228.81422711  .00002014  00000-0  14457-3 0  9993,2 51852  53.2163 260.4321 0001534  75.1322 284.9840 15.08849539 81729,6917.851,95.437,540.777,538.655,0.0
51852.0,STARLINK-3542,PAYLOAD,2023-08-17 11:26:21,15.0883765,0.0001365,53.2169,257.4588,98.407,261.7077,3.5375e-05,2.75e-06,0.0,0 STARLINK-3542,1 51852U 22022A   23229.47663646  .00000275  00000-0  35375-4 0  9990,2 51852  53.2169 257.4588 0001365  98.4070 261.7077 15.08837650 81823,6917.888,95.438,540.697,538.808,0.0
51852.0,STARLINK-3542,PAYLOAD,2023-08-18 19:14:03,15.08851967,0.0001375,53.2161,251.5099,85.5159,274.599,-0.00011313,-2.089e-05,0.0,0 STARLINK-3542,1 51852U 22022A   23230.80142875 -.00002089  00000-0 -11313-3 0  9997,2 51852  53.2161 251.5099 0001375  85.5159 274.5990 15.08851967 82029,6917.844,95.437,540.66,538.758,0.0
51852.0,STARLINK-3542,PAYLOAD,2023-08-19 07:57:08,15.08839261,0.0001527,53.2163,249.1307,77.9236,282.1927,0.0001202,1.625e-05,0.0,0 STARLINK-3542,1 51852U 22022A   23231.33135406  .00001625  00000-0  12020-3 0  9997,2 51852  53.2163 249.1307 0001527  77.9236 282.1927 15.08839261 82103,6917.883,95.438,540.804,538.691,0.0
51852.0,STARLINK-3542,PAYLOAD,2023-08-20 01:26:24,15.08835647,0.0001603,53.2158,245.8588,84.5275,275.59,6.2128e-06,-1.89e-06,0.0,0 STARLINK-3542,1 51852U 22022A   23232.06000079 -.00000189  00000-0  62128-5 0  9996,2 51852  53.2158 245.8588 0001603  84.5275 275.5900 15.08835647 82216,6917.894,95.438,540.868,538.65,0.0
51852.0,STARLINK-3542,PAYLOAD,2023-08-21 07:38:43,15.08843697,0.0001481,53.2157,240.2097,85.2069,274.9092,8.1721e-05,1.013e-05,0.0,0 STARLINK-3542,1 51852U 22022A   23233.31855433  .00001013  00000-0  81721-4 0  9992,2 51852  53.2157 240.2097 0001481  85.2069 274.9092 15.08843697 82402,6917.869,95.437,540.759,538.71,0.0
51852.0,STARLINK-3542,PAYLOAD,2023-08-22 04:18:44,15.08831417,0.0001455,53.2162,236.344,84.7168,275.399,4.5317e-05,4.33e-06,0.0,0 STARLINK-3542,1 51852U 22022A   23234.17968488  .00000433  00000-0  45317-4 0  9998,2 51852  53.2162 236.3440 0001455  84.7168 275.3990 15.08831417 82534,6917.907,95.438,540.778,538.765,0.0
51852.0,STARLINK-3542,PAYLOAD,2023-08-23 08:55:40,15.08843001,0.000143,53.2163,230.9923,85.0389,275.0766,5.9231e-05,6.55e-06,0.0,0 STARLINK-3542,1 51852U 22022A   23235.37199979  .00000655  00000-0  59231-4 0  9998,2 51852  53.2163 230.9923 0001430  85.0389 275.0766 15.08843001 82713,6917.871,95.437,540.725,538.747,0.0
51852.0,STARLINK-3542,PAYLOAD,2023-08-24 11:57:14,15.08837455,0.0001477,53.2161,225.9364,86.7755,273.3406,0.00012062,1.632e-05,0.0,0 STARLINK-3542,1 51852U 22022A   23236.49808364  .00001632  00000-0  12062-3 0  9993,2 51852  53.2161 225.9364 0001477  86.7755 273.3406 15.08837455 81638,6917.888,95.438,540.775,538.731,0.0
51852.0,STARLINK-3542,PAYLOAD,2023-08-25 05:26:28,15.08844879,0.0001484,53.2161,222.6644,90.6465,269.4697,6.0233e-05,6.71e-06,0.0,0 STARLINK-3542,1 51852U 22022A   23237.22672016  .00000671  00000-0  60233-4 0  9994,2 51852  53.2161 222.6644 0001484  90.6465 269.4697 15.08844879 81741,6917.865,95.437,540.757,538.704,0.0
51852.0,STARLINK-3542,PAYLOAD,2023-08-25 22:55:43,15.08839294,0.0001425,53.2157,219.3939,91.6055,268.5101,8.5509e-05,1.073e-05,0.0,0 STARLINK-3542,1 51852U 22022A   23237.95536266  .00001073  00000-0  85509-4 0  9990,2 51852  53.2157 219.3939 0001425  91.6055 268.5101 15.08839294 81854,6917.883,95.438,540.733,538.762,0.0
51852.0,STARLINK-3542,PAYLOAD,2023-08-26 08:28:01,15.08842738,0.0001379,53.2156,217.6094,95.2316,264.8833,7.5197e-05,9.09e-06,0.0,0 STARLINK-3542,1 51852U 22022A   23238.35280054  .00000909  00000-0  75197-4 0  9995,2 51852  53.2156 217.6094 0001379  95.2316 264.8833 15.08842738 81919,6917.872,95.437,540.691,538.783,0.0
51852.0,STARLINK-3542,PAYLOAD,2023-08-27 01:57:16,15.08836939,0.0001514,53.216,214.3392,95.8212,264.2953,9.0746e-06,-1.44e-06,0.0,0 STARLINK-3542,1 51852U 22022A   23239.08144640 -.00000144  00000-0  90746-5 0  9996,2 51852  53.2160 214.3392 0001514  95.8212 264.2953 15.08836939 83275,6917.89,95.438,540.802,538.707,0.0
51852.0,STARLINK-3542,PAYLOAD,2023-08-27 08:18:49,15.08841404,0.0001513,53.2163,213.1493,97.8013,262.3151,4.1951e-05,3.8e-06,0.0,0 STARLINK-3542,1 51852U 22022A   23239.34640242  .00000380  00000-0  41951-4 0  9998,2 51852  53.2163 213.1493 0001513  97.8013 262.3151 15.08841404 82065,6917.876,95.437,540.788,538.694,0.0
51852.0,STARLINK-3542,PAYLOAD,2023-08-28 08:09:36,15.08841762,0.0001408,53.2169,208.6891,98.591,261.5242,7.0755e-05,8.38e-06,0.0,0 STARLINK-3542,1 51852U 22022A   23240.34000242  .00000838  00000-0  70755-4 0  9992,2 51852  53.2169 208.6891 0001408  98.5910 261.5242 15.08841762 83463,6917.875,95.437,540.714,538.766,0.0
51852.0,STARLINK-3542,PAYLOAD,2023-08-28 20:52:41,15.08834433,0.0001457,53.2169,206.3106,98.9763,261.1394,4.6417e-05,4.51e-06,0.0,0 STARLINK-3542,1 51852U 22022A   23240.86992897  .00000451  00000-0  46417-4 0  9994,2 51852  53.2169 206.3106 0001457  98.9763 261.1394 15.08834433 82292,6917.897,95.438,540.77,538.754,0.0
51852.0,STARLINK-3542,PAYLOAD,2023-08-29 01:38:51,15.08836938,0.0001484,53.2171,205.4185,103.6151,256.5006,2.8062e-05,1.59e-06,0.0,0 STARLINK-3542,1 51852U 22022A   23241.06864869  .00000159  00000-0  28062-4 0  9995,2 51852  53.2171 205.4185 0001484 103.6151 256.5006 15.08836938 83579,6917.89,95.438,540.781,538.728,0.0
51852.0,STARLINK-3542,PAYLOAD,2023-08-29 06:25:00,15.08839548,0.0001444,53.2169,204.5271,97.9564,262.1592,4.4934e-05,4.27e-06,0.0,0 STARLINK-3542,1 51852U 22022A   23241.26736699  .00000427  00000-0  44934-4 0  9990,2 51852  53.2169 204.5271 0001444  97.9564 262.1592 15.08839548 82359,6917.882,95.438,540.746,538.748,0.0
51852.0,STARLINK-3542,PAYLOAD,2023-08-30 01:29:37,15.08899032,0.0001031,53.2173,200.9595,102.8876,257.2232,-0.00078781,-0.00012824,0.0,0 STARLINK-3542,1 51852U 22022A   23242.06224384 -.00012824  00000-0 -78781-3 0  9994,2 51852  53.2173 200.9595 0001031 102.8876 257.2232 15.08899032 83729,6917.7,95.434,540.278,538.852,0.0
51852.0,STARLINK-3542,PAYLOAD,2023-08-30 07:51:09,15.08875174,0.0001134,53.2169,199.7696,98.5204,261.5917,-0.00038125,-6.356e-05,0.0,0 STARLINK-3542,1 51852U 22022A   23242.32719879 -.00006356  00000-0 -38125-3 0  9992,2 51852  53.2169 199.7696 0001134  98.5204 261.5917 15.08875174 83764,6917.773,95.435,540.422,538.853,0.0
51852.0,STARLINK-3542,PAYLOAD,2023-08-30 14:12:43,15.08841853,0.0001342,53.217,198.5803,93.7312,266.3834,3.2024e-05,2.22e-06,0.0,0 STARLINK-3542,1 51852U 22022A   23242.59216872  .00000222  00000-0  32024-4 0  9993,2 51852  53.2170 198.5803 0001342  93.7312 266.3834 15.08841853 83804,6917.875,95.437,540.668,538.811,0.0
51852.0,STARLINK-3542,PAYLOAD,2023-08-31 06:06:35,15.0883747,0.0001365,53.2166,195.6058,90.0722,270.0427,3.4749e-05,2.65e-06,0.0,0 STARLINK-3542,1 51852U 22022A   23243.25457301  .00000265  00000-0  34749-4 0  9994,2 51852  53.2166 195.6058 0001365  90.0722 270.0427 15.08837470 83900,6917.888,95.438,540.697,538.809,0.0
51852.0,STARLINK-3542,PAYLOAD,2023-09-01 05:57:22,15.08811978,0.0001615,53.217,191.145,91.1595,268.9582,0.00047851,7.33e-05,0.0,0 STARLINK-3542,1 51852U 22022A   23244.24817934  .00007330  00000-0  47851-3 0  9993,2 51852  53.2170 191.1450 0001615  91.1595 268.9582 15.08811978 84050,6917.966,95.439,540.948,538.714,0.0
51852.0,STARLINK-3542,PAYLOAD,2023-09-01 13:54:18,15.0882809,0.0001528,53.2157,189.6586,93.4926,266.6241,0.0002944,4.399e-05,0.0,0 STARLINK-3542,1 51852U 22022A   23244.57937576  .00004399  00000-0  29440-3 0  9990,2 51852  53.2157 189.6586 0001528  93.4926 266.6241 15.08828090 82859,6917.917,95.438,540.839,538.725,0.0
